[Satellite]
VERSION=1.1
NAME=PCSAT (NO-44)
NICKNAME=NO-44
TLE1=1 26931U 01043C   19317.50856172 -.00000016  00000-0  25757-4 0  9992
TLE2=2 26931  67.0517 342.2384 0007462 266.0065  94.0183 14.30558416946112
STATUS=0
